{
  "norad_id": 54033,
  "name": "ANGOSAT 2",
  "history": [
    {
      "epoch": "2026-04-23T13:48:19.238688Z",
      "apogee_km": 35790.751163315916,
      "perigee_km": 35783.494522097,
      "latitude_deg": -0.013315632999604728,
      "longitude_deg": 22.987917828911662,
      "height_km": 35784.48494935526,
      "semi_major_axis_km": 42165.25984270646,
      "eccentricity": 8.605e-05,
      "inclination_deg": 0.014,
      "raan_deg": 158.3722,
      "arg_perigee_deg": 337.1254,
      "mean_anomaly_deg": 306.1916,
      "mean_motion_rev_day": 1.00269902
    },
    {
      "epoch": "2026-04-24T20:36:29.321280Z",
      "apogee_km": 35789.50292409664,
      "perigee_km": 35783.473382699696,
      "latitude_deg": -0.013332488381811705,
      "longitude_deg": 23.001023776419267,
      "height_km": 35784.91195831607,
      "semi_major_axis_km": 42164.62515339817,
      "eccentricity": 7.15e-05,
      "inclination_deg": 0.0119,
      "raan_deg": 199.958,
      "arg_perigee_deg": 275.9352,
      "mean_anomaly_deg": 69.0988,
      "mean_motion_rev_day": 1.00272166
    },
    {
      "epoch": "2026-04-25T13:43:06.748896Z",
      "apogee_km": 35789.28768022184,
      "perigee_km": 35783.20757595847,
      "latitude_deg": -0.01995013257206056,
      "longitude_deg": 22.992452572586043,
      "height_km": 35783.13813979486,
      "semi_major_axis_km": 42164.384628090156,
      "eccentricity": 7.21e-05,
      "inclination_deg": 0.0114,
      "raan_deg": 193.0368,
      "arg_perigee_deg": 280.1206,
      "mean_anomaly_deg": 329.1965,
      "mean_motion_rev_day": 1.00273024
    },
    {
      "epoch": "2026-04-25T13:43:06.749760Z",
      "apogee_km": 35789.286415290306,
      "perigee_km": 35783.20884089001,
      "latitude_deg": -0.01995013307527714,
      "longitude_deg": 22.992450712553012,
      "height_km": 35783.139222651516,
      "semi_major_axis_km": 42164.384628090156,
      "eccentricity": 7.207e-05,
      "inclination_deg": 0.0114,
      "raan_deg": 193.0368,
      "arg_perigee_deg": 280.1206,
      "mean_anomaly_deg": 329.1965,
      "mean_motion_rev_day": 1.00273024
    },
    {
      "epoch": "2026-04-27T20:28:48.179424Z",
      "apogee_km": 35789.97952581976,
      "perigee_km": 35782.67664046736,
      "latitude_deg": -0.018469890714229113,
      "longitude_deg": 23.005571142322943,
      "height_km": 35785.37849278684,
      "semi_major_axis_km": 42164.465083143565,
      "eccentricity": 8.66e-05,
      "inclination_deg": 0.0114,
      "raan_deg": 209.7242,
      "arg_perigee_deg": 253.4686,
      "mean_anomaly_deg": 82.8357,
      "mean_motion_rev_day": 1.00272737
    },
    {
      "epoch": "2026-04-28T21:16:44.572800Z",
      "apogee_km": 35790.136852417854,
      "perigee_km": 35782.159369674846,
      "latitude_deg": -0.011959502562213856,
      "longitude_deg": 23.008883280061227,
      "height_km": 35786.10003676925,
      "semi_major_axis_km": 42164.28511104635,
      "eccentricity": 9.46e-05,
      "inclination_deg": 0.01,
      "raan_deg": 206.5009,
      "arg_perigee_deg": 256.0904,
      "mean_anomaly_deg": 96.4458,
      "mean_motion_rev_day": 1.00273379
    },
    {
      "epoch": "2026-04-29T01:34:10.351776Z",
      "apogee_km": 35790.134278942554,
      "perigee_km": 35782.08849706516,
      "latitude_deg": 0.018660737348827543,
      "longitude_deg": 23.002672049783595,
      "height_km": 35789.37831025182,
      "semi_major_axis_km": 42164.24838800386,
      "eccentricity": 9.541e-05,
      "inclination_deg": 0.0095,
      "raan_deg": 203.9214,
      "arg_perigee_deg": 259.2724,
      "mean_anomaly_deg": 160.3783,
      "mean_motion_rev_day": 1.0027351
    },
    {
      "epoch": "2026-04-30T13:30:20.947680Z",
      "apogee_km": 35791.15307876325,
      "perigee_km": 35781.30685578905,
      "latitude_deg": -0.01201146669968192,
      "longitude_deg": 22.992811525010158,
      "height_km": 35781.26804816696,
      "semi_major_axis_km": 42164.36696727615,
      "eccentricity": 0.00011676,
      "inclination_deg": 0.0062,
      "raan_deg": 195.3699,
      "arg_perigee_deg": 273.5741,
      "mean_anomaly_deg": 335.1512,
      "mean_motion_rev_day": 1.00273087
    },
    {
      "epoch": "2026-05-02T04:51:48.873600Z",
      "apogee_km": 35792.2390583284,
      "perigee_km": 35781.008052706835,
      "latitude_deg": 0.02113989953631204,
      "longitude_deg": 22.98339289792333,
      "height_km": 35790.99160414649,
      "semi_major_axis_km": 42164.76055551762,
      "eccentricity": 0.00013318,
      "inclination_deg": 0.0057,
      "raan_deg": 278.5626,
      "arg_perigee_deg": 188.4539,
      "mean_anomaly_deg": 209.0569,
      "mean_motion_rev_day": 1.00271683
    },
    {
      "epoch": "2026-05-04T15:02:47.253984Z",
      "apogee_km": 35792.45519134294,
      "perigee_km": 35780.59848787124,
      "latitude_deg": 0.006273353900155255,
      "longitude_deg": 22.994457947894286,
      "height_km": 35780.12805406637,
      "semi_major_axis_km": 42164.66383960709,
      "eccentricity": 0.0001406,
      "inclination_deg": 0.0044,
      "raan_deg": 87.4861,
      "arg_perigee_deg": 28.2681,
      "mean_anomaly_deg": 355.4585,
      "mean_motion_rev_day": 1.00272028
    },
    {
      "epoch": "2026-05-05T18:25:35.113728Z",
      "apogee_km": 35792.467692307626,
      "perigee_km": 35780.26528499801,
      "latitude_deg": -0.020747312432086433,
      "longitude_deg": 23.01009152878612,
      "height_km": 35781.66803989013,
      "semi_major_axis_km": 42164.503488652816,
      "eccentricity": 0.0001447,
      "inclination_deg": 0.0035,
      "raan_deg": 290.5236,
      "arg_perigee_deg": 186.2769,
      "mean_anomaly_deg": 46.2387,
      "mean_motion_rev_day": 1.002726
    },
    {
      "epoch": "2026-05-06T16:40:16.248864Z",
      "apogee_km": 35792.39616906179,
      "perigee_km": 35780.10693637421,
      "latitude_deg": -0.0029578159615420794,
      "longitude_deg": 23.007486133162985,
      "height_km": 35780.00211435513,
      "semi_major_axis_km": 42164.388552718,
      "eccentricity": 0.00014573,
      "inclination_deg": 0.0043,
      "raan_deg": 346.2013,
      "arg_perigee_deg": 131.1961,
      "mean_anomaly_deg": 20.2304,
      "mean_motion_rev_day": 1.0027301
    },
    {
      "epoch": "2026-05-08T14:52:17.292576Z",
      "apogee_km": 35792.42881444993,
      "perigee_km": 35780.58898188172,
      "latitude_deg": -0.004925958020353794,
      "longitude_deg": 22.990097485083748,
      "height_km": 35780.14964248117,
      "semi_major_axis_km": 42164.64589816583,
      "eccentricity": 0.0001404,
      "inclination_deg": 0.0038,
      "raan_deg": 281.5433,
      "arg_perigee_deg": 198.5649,
      "mean_anomaly_deg": 352.4128,
      "mean_motion_rev_day": 1.00272092
    },
    {
      "epoch": "2026-05-09T13:06:57.218112Z",
      "apogee_km": 35791.750426245504,
      "perigee_km": 35780.694931137754,
      "latitude_deg": 0.005709644532784938,
      "longitude_deg": 22.986556558275907,
      "height_km": 35780.87911406579,
      "semi_major_axis_km": 42164.35967869163,
      "eccentricity": 0.0001311,
      "inclination_deg": 0.0023,
      "raan_deg": 296.5492,
      "arg_perigee_deg": 179.4104,
      "mean_anomaly_deg": 331.1439,
      "mean_motion_rev_day": 1.00273113
    },
    {
      "epoch": "2026-05-10T19:55:01.968960Z",
      "apogee_km": 35791.209453018586,
      "perigee_km": 35781.56221019472,
      "latitude_deg": 0.015819777793945493,
      "longitude_deg": 23.004554876690698,
      "height_km": 35784.49121459879,
      "semi_major_axis_km": 42164.52283160666,
      "eccentricity": 0.0001144,
      "inclination_deg": 0.002,
      "raan_deg": 86.85,
      "arg_perigee_deg": 30.3838,
      "mean_anomaly_deg": 73.1548,
      "mean_motion_rev_day": 1.00272531
    },
    {
      "epoch": "2026-05-11T19:52:22.418400Z",
      "apogee_km": 35791.46884922667,
      "perigee_km": 35781.56184251149,
      "latitude_deg": 0.015306357737944826,
      "longitude_deg": 23.003064116057548,
      "height_km": 35784.58881053572,
      "semi_major_axis_km": 42164.652345869086,
      "eccentricity": 0.00011748,
      "inclination_deg": 0.0038,
      "raan_deg": 87.2616,
      "arg_perigee_deg": 30.2312,
      "mean_anomaly_deg": 73.2149,
      "mean_motion_rev_day": 1.00272069
    },
    {
      "epoch": "2026-05-13T04:23:02.943744Z",
      "apogee_km": 35791.252787291894,
      "perigee_km": 35781.48411466901,
      "latitude_deg": 0.006410850059367255,
      "longitude_deg": 22.986274143158568,
      "height_km": 35790.4115372026,
      "semi_major_axis_km": 42164.505450980454,
      "eccentricity": 0.00011584,
      "inclination_deg": 0.0042,
      "raan_deg": 330.9687,
      "arg_perigee_deg": 148.2514,
      "mean_anomaly_deg": 200.4947,
      "mean_motion_rev_day": 1.00272593
    },
    {
      "epoch": "2026-05-14T14:36:30.492864Z",
      "apogee_km": 35790.65157019478,
      "perigee_km": 35781.61998296604,
      "latitude_deg": 0.0017698697283311565,
      "longitude_deg": 22.994753828287593,
      "height_km": 35781.12950342726,
      "semi_major_axis_km": 42164.272776580416,
      "eccentricity": 0.0001071,
      "inclination_deg": 0.0049,
      "raan_deg": 337.6314,
      "arg_perigee_deg": 138.9026,
      "mean_anomaly_deg": 357.9564,
      "mean_motion_rev_day": 1.00273423
    }
  ]
}